[{"OBJECT_NAME":"STARLINK-5257","OBJECT_ID":"2023-010AZ","EPOCH":"2026-03-09T22:42:44.276256","MEAN_MOTION":14.98332369,"ECCENTRICITY":0.00026988,"INCLINATION":70.0014,"RA_OF_ASC_NODE":3.7087,"ARG_OF_PERICENTER":255.8534,"MEAN_ANOMALY":104.2325,"EPHEMERIS_TYPE":0,"CLASSIFICATION_TYPE":"U","NORAD_CAT_ID":55316,"ELEMENT_SET_NO":999,"REV_AT_EPOCH":17468,"BSTAR":0.00024880287,"MEAN_MOTION_DOT":2.877e-5,"MEAN_MOTION_DDOT":0},{"OBJECT_NAME":"CZ-4C DEB","OBJECT_ID":"2010-038C","EPOCH":"2026-03-09T11:39:53.947584","MEAN_MOTION":15.01546644,"ECCENTRICITY":0.00721012,"INCLINATION":97.7316,"RA_OF_ASC_NODE":260.9237,"ARG_OF_PERICENTER":198.3771,"MEAN_ANOMALY":193.4151,"EPHEMERIS_TYPE":0,"CLASSIFICATION_TYPE":"U","NORAD_CAT_ID":37567,"ELEMENT_SET_NO":999,"REV_AT_EPOCH":82756,"BSTAR":0.0017211285,"MEAN_MOTION_DOT":0.00023562,"MEAN_MOTION_DDOT":0}]
